STARLINK-5764           
1 55602U 23020AK  24172.33231706  .00000279  00000+0  35745-4 0  9991
2 55602  43.0027 160.9475 0001016 270.7609  89.3117 15.02533060 74697
STARLINK-5735           
1 55603U 23020AL  24172.25917670  .00000771  00000+0  72168-4 0  9991
2 55603  43.0031 161.2785 0001175 270.2751  89.7956 15.02538437 74687
STARLINK-5748           
1 55604U 23020AM  24172.36131329  .00000611  00000+0  60288-4 0  9996
2 55604  43.0031 147.3170 0001205 270.6314  89.4391 15.02536233 74855
STARLINK-5725           
1 55605U 23020AN  24172.25473881  .00000455  00000+0  48744-4 0  9996
2 55605  43.0030 161.2426 0001558 275.6093  84.4572 15.02534987 74685
STARLINK-5700           
1 55607U 23020AQ  24172.24808324  .00001045  00000+0  92442-4 0  9991
2 55607  43.0026 161.1947 0001250 268.6580  91.4119 15.02536345 74686
STARLINK-5726           
1 55608U 23020AR  24172.24586458  .00000242  00000+0  32963-4 0  9993
2 55608  43.0044 161.1785 0001190 264.9286  95.1421 15.02534622 74685
STARLINK-5719           
1 55609U 23020AS  24172.38436720  .00000498  00000+0  51924-4 0  9996
2 55609  43.0034 160.4971 0001495 269.8384  90.2287 15.02537746 74704
STARLINK-5722           
1 55610U 23020AT  24172.43752444  .00000539  00000+0  55004-4 0  9997
2 55610  43.0036 160.0356 0001155 273.0975  86.9735 15.02536327 74712
STARLINK-5730           
1 55611U 23020AU  24172.36883020 -.00000064  00000+0  10362-4 0  9997
2 55611  43.0028 160.3815 0001119 274.4614  85.6100 15.02531676 74705
STARLINK-5734           
1 55612U 23020AV  24172.36771708  .00001096  00000+0  96214-4 0  9992
2 55612  43.0029 160.3729 0001234 266.2922  93.7779 15.02538221 74705
STARLINK-5715           
1 55613U 23020AW  24172.44196687  .00001359  00000+0  11565-3 0  9996
2 55613  43.0033 160.0668 0001812 263.2381  96.8255 15.02545652 74718
STARLINK-5714           
1 55614U 23020AX  24172.30593227  .00000623  00000+0  61168-4 0  9991
2 55614  43.0033 147.7260 0001251 267.9981  92.0718 15.02534511 74841
STARLINK-5712           
1 55615U 23020AY  24172.36438892  .00000312  00000+0  38157-4 0  9991
2 55615  43.0036 160.3480 0001226 267.9226  92.1476 15.02536277 74702
STARLINK-5710           
1 55616U 23020AZ  24171.69072811  .00000385  00000+0  43562-4 0  9998
2 55616  43.0042 163.8951 0001167 272.0425  88.0284 15.02535851 74600
STARLINK-5721           
1 55617U 23020BA  24171.82923659  .00000723  00000+0  68597-4 0  9990
2 55617  43.0030 163.2123 0001131 272.5396  87.5317 15.02534784 74623
STARLINK-5717           
1 55618U 23020BB  24171.68962338  .00000492  00000+0  51530-4 0  9994
2 55618  43.0039 163.8867 0001171 264.9502  95.1207 15.02532252 74601
STARLINK-5720           
1 55619U 23020BC  24172.35106622  .00000910  00000+0  82408-4 0  9999
2 55619  43.0026 160.2468 0001049 272.9855  87.0867 15.02537986 74702
STARLINK-5718           
1 55620U 23020BD  24172.28126662  .00001342  00000+0  11437-3 0  9992
2 55620  43.0040 160.5827 0001249 266.5995  93.4704 15.02535584 74699
STARLINK-5709           
1 55621U 23020BE  24172.29236251  .00000215  00000+0  30989-4 0  9992
2 55621  43.0032 160.6661 0001164 268.4589  91.6120 15.02532555 74691
STARLINK-5702           
1 55622U 23020BF  24172.34551846  .00000963  00000+0  86345-4 0  9996
2 55622  43.0036 160.2081 0001278 271.2132  88.8564 15.02536619 74707
STARLINK-5698           
1 55623U 23020BG  24172.27460256  .00000485  00000+0  50978-4 0  9995
2 55623  43.0041 160.5330 0001209 264.3006  95.7698 15.02535665 74694
STARLINK-5484           
1 55628U 23021A   24172.59688568 -.00000018  00000+0  62773-5 0  9994
2 55628  69.9998 345.6682 0002925 268.6540  91.4284 14.98331128 74369
STARLINK-5497           
1 55629U 23021B   24172.60105758  .00000212  00000+0  25562-4 0  9991
2 55629  70.0001 345.6835 0002956 269.2184  90.8637 14.98332586 74367
STARLINK-5303           
1 55630U 23021C   24172.59271168  .00001158  00000+0  10484-3 0  9996
2 55630  69.9998 345.6526 0002934 271.5084  88.5739 14.98322638 74363
STARLINK-5558           
1 55631U 23021D   24172.56766404 -.00000194  00000+0 -84779-5 0  9997
2 55631  69.9998 345.5617 0003114 267.2620  92.8183 14.98332749 74368
STARLINK-5546           
1 55632U 23021E   24172.58435909  .00000144  00000+0  19872-4 0  9997
2 55632  70.0002 345.6207 0003001 270.8711  89.2104 14.98333801 74363
STARLINK-5498           
1 55633U 23021F   24172.58018335  .00000932  00000+0  85897-4 0  9993
2 55633  69.9999 345.6069 0003058 269.9632  90.1177 14.98334162 74367
STARLINK-5500           
1 55634U 23021G   24172.58452408  .00000318  00000+0  34424-4 0  9995
2 55634  70.0004 345.6229 0003010 271.1090  88.9725 14.98334520 74369
STARLINK-5495           
1 55635U 23021H   24172.56327132 -.00000100  00000+0 -58940-6 0  9991
2 55635  70.0003 325.6800 0003083 271.2424  88.8382 14.98328091 74852
STARLINK-5218           
1 55636U 23021J   24172.57182073  .00002038  00000+0  17847-3 0  9994
2 55636  69.9999 345.5778 0003081 269.2367  90.8439 14.98349111 74368
STARLINK-5062           
1 55637U 23021K   24172.57996242  .00000300  00000+0  32952-4 0  9991
2 55637  70.0005 325.7336 0002995 269.8237  90.2579 14.98331764 74853
STARLINK-5507           
1 55638U 23021L   24172.57601722  .00000265  00000+0  29972-4 0  9996
2 55638  69.9999 345.5932 0003097 270.9095  89.1709 14.98327087 74365
STARLINK-5508           
1 55639U 23021M   24172.55925739  .00000063  00000+0  13114-4 0  9999
2 55639  70.0005 325.6624 0002965 270.5546  89.5273 14.98330928 74856
STARLINK-5069           
1 55640U 23021N   24172.62168132 -.00000168  00000+0 -63046-5 0  9993
2 55640  70.0007 325.4777 0002933 268.1790  91.9033 14.98327167 74869
STARLINK-5065           
1 55641U 23021P   24172.56343474 -.00000088  00000+0  40171-6 0  9996
2 55641  70.0003 325.6769 0003023 269.6790  90.4022 14.98327559 74852
STARLINK-5478           
1 55642U 23021Q   24172.53590905  .00318584  46880-4  59478-3 0  9997
2 55642  69.9969 311.3762 0003498 281.8501  78.2318 16.00825368 75206
STARLINK-5483           
1 55643U 23021R   24172.59248684 -.00000209  00000+0 -97181-5 0  9996
2 55643  70.0002 325.7716 0003096 270.0954  89.9850 14.98329905 74853
STARLINK-5502           
1 55644U 23021S   24172.57161572  .00000173  00000+0  22281-4 0  9991
2 55644  70.0004 325.7054 0002981 275.5204  84.5615 14.98331056 74851
STARLINK-5102           
1 55645U 23021T   24172.58335648  .00473310  00000+0  29610-1 0  9997
2 55645  70.0010 325.4465 0003232 267.6473   3.4567 15.07243492  5826
STARLINK-5104           
1 55646U 23021U   24172.58413742 -.00000042  00000+0  43100-5 0  9993
2 55646  69.9997 325.7472 0003110 269.4205  90.6597 14.98331019 74859
STARLINK-5510           
1 55647U 23021V   24172.60498367 -.00000450  00000+0 -29960-4 0  9994
2 55647  70.0004 325.4180 0002985 270.3423  89.7394 14.98329610 74866
STARLINK-5501           
1 55648U 23021W   24172.56744503 -.00000929  00000+0 -70061-4 0  9995
2 55648  70.0006 325.6902 0002996 269.3994  90.6822 14.98330906 74852
STARLINK-5469           
1 55649U 23021X   24172.61333131 -.00000115  00000+0 -18069-5 0  9991
2 55649  70.0006 325.4469 0002969 268.7182  91.3637 14.98330194 74863
STARLINK-5494           
1 55650U 23021Y   24172.55909290  .00000287  00000+0  31838-4 0  9997
2 55650  70.0004 325.6614 0003012 270.9163  89.1651 14.98331476 74855
STARLINK-5506           
1 55651U 23021Z   24172.57578992 -.00000135  00000+0 -35616-5 0  9994
2 55651  70.0005 325.7187 0003014 267.0101  93.0714 14.98331332 74859
STARLINK-5487           
1 55652U 23021AA  24172.61750606 -.00000101  00000+0 -67387-6 0  9998
2 55652  70.0006 325.4630 0002938 269.1286  90.9536 14.98329820 74860
STARLINK-5067           
1 55653U 23021AB  24172.60080911  .00000165  00000+0  21641-4 0  9992
2 55653  70.0001 325.4035 0003091 270.6782  89.4023 14.98329438 74863
STARLINK-5070           
1 55654U 23021AC  24172.58831506 -.00000350  00000+0 -21532-4 0  9991
2 55654  70.0006 325.7628 0002951 269.4395  90.6426 14.98329992 74855
STARLINK-5267           
1 55655U 23021AD  24172.55886899 -.00000393  00000+0 -25168-4 0  9990
2 55655  70.0007 305.7870 0003118 267.3912  92.6890 14.98332514 75348
STARLINK-5326           
1 55656U 23021AE  24172.60097254 -.00000014  00000+0  65807-5 0  9990
2 55656  70.0000 325.4035 0003046 271.0406  89.0404 14.98333669 74863
STARLINK-5328           
1 55657U 23021AF  24172.56722171 -.00000087  00000+0  46765-6 0  9992
2 55657  70.0004 305.8158 0003024 272.0481  88.0332 14.98328013 75346
STARLINK-5307           
1 55658U 23021AG  24172.60915602 -.00000150  00000+0 -47600-5 0  9991
2 55658  70.0007 325.4330 0002926 269.3475  90.7349 14.98331455 74860
STARLINK-5477           
1 55659U 23021AH  24172.56304559 -.00000131  00000+0 -31546-5 0  9991
2 55659  70.0006 305.8018 0003040 267.4804  92.6007 14.98327836 75342
STARLINK-5467           
1 55660U 23021AJ  24172.58965026 -.00000020  00000+0  60677-5 0  9990
2 55660  69.9998 305.4988 0003096 269.9143  90.1662 14.99140144 75354
STARLINK-5475           
1 55661U 23021AK  24172.61312683 -.00001537  00000+0 -12107-3 0  9998
2 55661  70.0001 305.5750 0003424 272.3986  87.6780 14.98318069 75353
STARLINK-5479           
1 55662U 23021AL  24172.57139366  .00000471  00000+0  47244-4 0  9994
2 55662  70.0002 305.8426 0003011 270.8871  89.1943 14.98331716 75347
STARLINK-5473           
1 55663U 23021AM  24172.60476120  .00000095  00000+0  15739-4 0  9997
2 55663  70.0003 305.5444 0003176 270.4125  89.6670 14.98327730 75350
STARLINK-5480           
1 55664U 23021AN  24172.55469881  .00000271  00000+0  30531-4 0  9991
2 55664  70.0007 305.7721 0003136 266.8762  93.2039 14.98324477 75341
STARLINK-5474           
1 55665U 23021AP  24172.60058768 -.00000454  00000+0 -30294-4 0  9997
2 55665  70.0006 305.5303 0002914 269.3949  90.6876 14.98327661 75352
